OBJECT_NAME,OBJECT_ID,EPOCH,MEAN_MOTION,ECCENTRICITY,INCLINATION,RA_OF_ASC_NODE,ARG_OF_PERICENTER,MEAN_ANOMALY,EPHEMERIS_TYPE,CLASSIFICATION_TYPE,NORAD_CAT_ID,ELEMENT_SET_NO,REV_AT_EPOCH,BSTAR,MEAN_MOTION_DOT,MEAN_MOTION_DDOT
HAMSAT (VO-52),2005-017B,2026-07-17T00:16:52.068864,15.09968852,.00175035,97.9899,222.3506,297.5397,62.4052,0,U,28650,999,15126,.16452946E-3,.2608E-4,0
NOAA 18,2005-018A,2026-07-17T06:31:33.138048,14.13734210,.00152436,98.8108,277.5117,67.6835,292.5952,0,U,28654,999,9056,.32774745E-4,.18E-6,0
SJ-7,2005-024A,2026-07-17T01:47:50.851104,15.21950919,.00136507,97.7272,228.9898,289.4696,70.5064,0,U,28737,999,15257,.17394156E-3,.3899E-4,0
CUBESAT XI-V,2005-043F,2026-07-16T23:00:13.930848,14.72704810,.00153115,98.3017,354.2118,110.0551,250.2305,0,U,28895,999,10613,.10708966E-3,.631E-5,0
CLOUDSAT,2006-016A,2026-07-17T05:45:15.918912,14.86447418,.00042461,98.3914,237.1947,223.8751,136.2126,0,U,29107,999,7897,.54493994E-4,.421E-5,0
CALIPSO,2006-016B,2026-07-17T06:13:46.568064,14.69402677,.00014345,98.4471,214.9490,110.6556,249.4803,0,U,29108,999,7747,.87457085E-4,.465E-5,0
HINODE (SOLAR-B),2006-041A,2026-07-17T07:10:58.503936,14.68659630,.0017198,98.0548,214.0079,187.6928,172.4016,0,U,29479,999,5929,.54162056E-4,.267E-5,0
METOP-A,2006-044A,2026-07-17T06:51:33.731712,14.76049620,.01729974,98.3352,305.9359,333.7922,51.0060,0,U,29499,999,2989,.58703964E-4,.446E-5,0
SHIJIAN-6 02B (SJ-6 02B),2006-046B,2026-07-17T08:04:57.545760,15.01439543,.00131584,97.7139,227.2085,328.7992,31.2450,0,U,29506,999,7526,.3155833E-4,.347E-5,0
DMSP 5D-3 F17 (USA 191),2006-050A,2026-07-17T07:01:26.005440,14.14996166,.00096133,98.7388,204.2478,336.7027,23.3709,0,U,29522,999,1668,.1290178E-5,-.41E-6,0
LAPAN-TUBSAT,2007-001A,2026-07-17T06:53:00.924000,14.85977033,.00135797,98.1347,198.1914,87.8021,272.4749,0,U,29709,999,5562,.38075897E-4,.275E-5,0
HAIYANG-1B,2007-010A,2026-07-16T22:20:15.661248,14.31033589,.00146873,98.3516,178.6253,111.0193,249.2564,0,U,31113,999,489,.26942072E-4,.29E-6,0
BEIDOU-2 M1,2007-011A,2026-07-15T13:42:30.254400,1.77349362,.0002048,50.9235,218.3344,327.9250,32.1102,0,U,31115,999,7665,0,.45E-6,0
CAPE-1,2007-012P,2026-07-16T21:10:12.919872,14.64956304,.0082923,98.4480,173.1761,339.4996,20.2884,0,U,31130,999,2270,.12907201E-3,.67E-5,0
CBERS 2B,2007-042A,2026-07-17T07:34:39.549792,14.41489353,.00297779,98.3930,142.4418,243.1990,269.9496,0,U,32062,999,98902,.37679592E-4,.79E-6,0
COSMO-SKYMED 2,2007-059A,2026-07-17T06:29:52.530432,14.82151467,.0001458,97.8895,21.4336,93.8257,266.3122,0,U,32376,999,646,.25793519E-4,.153E-5,0
CARTOSAT-2A,2008-021A,2026-07-17T06:47:11.619168,14.79276612,.0012326,97.7613,245.9619,20.7714,339.3996,0,U,32783,999,98325,.1009156E-4,.25E-6,0
CUTE-1.7+APD II (CO-65),2008-021C,2026-07-17T05:01:30.993600,15.09711390,.00068842,97.8298,180.2615,291.3226,68.7267,0,U,32785,999,98972,.14251837E-3,.223E-4,0
SEEDS II (CO-66),2008-021J,2026-07-16T23:03:13.998816,15.33703048,.00032737,97.7526,197.3035,152.6353,207.5061,0,U,32791,999,99185,.31007221E-3,.10024E-3,0
YUBILEINY (RS30),2008-025A,2026-07-17T08:35:50.206272,12.43180742,.00186618,82.5065,336.6709,243.9456,115.9703,0,U,32953,999,82344,.43061083E-4,.16E-6,0
FENGYUN 3A,2008-026A,2026-07-17T06:49:58.095552,14.19576723,.00095992,98.6886,138.5558,46.5170,313.6803,0,U,32958,999,93967,.30476922E-4,.21E-6,0
HUANJING 1A (HJ-1A),2008-041A,2026-07-17T07:20:13.750080,14.84051515,.0020196,97.6695,182.9831,43.1022,317.1769,0,U,33320,999,96287,.10017552E-3,.786E-5,0
HUANJING 1B (HJ-1B),2008-041B,2026-07-17T06:55:37.498080,14.83367934,.00379906,97.6533,186.0470,84.6360,275.9187,0,U,33321,999,96287,.5487449E-4,.403E-5,0
SHIJIAN-6 03A (SJ-6 03A),2008-053A,2026-07-17T06:04:11.868960,15.17426167,.00095405,97.8387,232.6227,267.6854,92.3287,0,U,33408,999,96752,.10657235E-3,.206E-4,0
SHIJIAN-6 03B (SJ-6 03B),2008-053B,2026-07-17T07:08:47.656320,15.04379547,.00177463,97.8562,218.6891,303.0735,56.8786,0,U,33409,999,96727,-.1134481E-5,-.81E-6,0
CHUANGXIN 1-02 (CX-1-02),2008-056B,2026-07-17T07:28:22.467360,14.30159153,.00153288,98.6123,224.2766,54.6644,305.5969,0,U,33434,999,92292,.50848908E-4,.88E-6,0
STARS (KUKAI),2009-002G,2026-07-16T20:27:36.423360,14.95931540,.0009828,98.1553,146.3775,75.3822,284.8487,0,U,33498,999,94291,.16446177E-3,.1779E-4,0
KKS-1 (KISEKI),2009-002H,2026-07-17T05:03:38.525184,14.83191796,.00076034,98.1173,121.1288,182.1274,177.9908,0,U,33499,999,94064,.76422406E-4,.568E-5,0
NOAA 19,2009-005A,2026-07-17T06:37:35.929056,14.13478511,.00128475,98.9509,269.1708,307.9339,52.0672,0,U,33591,999,89873,.31359777E-4,.14E-6,0
UK-DMC 2,2009-041C,2026-07-17T07:46:25.864608,14.76093405,.00015939,97.8876,332.5596,101.0887,259.0502,0,U,35683,999,91101,-.1805238E-4,-.174E-5,0
METEOR-M 1,2009-049A,2026-07-16T21:14:35.771136,14.23162706,.0001604,98.7404,160.1479,192.7891,167.3247,0,U,35865,999,87347,.25843641E-4,.14E-6,0
OCEANSAT-2,2009-051A,2026-07-17T07:05:05.288640,13.99655921,.00174784,98.2321,182.1407,147.4527,212.7721,0,U,35931,999,88354,-.1563452E-5,-.4E-6,0
SWISSCUBE,2009-051B,2026-07-17T04:52:49.141920,14.62532837,.00079386,98.4005,106.6116,113.6742,246.5293,0,U,35932,999,89354,.98211383E-4,.449E-5,0
BEESAT-1,2009-051C,2026-07-16T16:20:27.870432,14.61763234,.00061862,98.3932,105.6536,125.9975,234.1800,0,U,35933,999,89349,.86615002E-4,.383E-5,0
ITUPSAT1,2009-051E,2026-07-17T04:15:10.956960,14.60480346,.00082048,98.4015,105.3171,137.6090,222.5745,0,U,35935,999,89311,.79458509E-4,.337E-5,0
DMSP 5D-3 F18 (USA 210),2009-057A,2026-07-17T06:22:56.183520,14.14912556,.00113518,98.9058,178.9727,159.7307,200.4319,0,U,35951,999,86384,.11007506E-3,.168E-5,0
PROBA-2,2009-059B,2026-07-17T05:26:11.472288,14.54874092,.00131533,98.2461,21.1644,182.4076,177.7060,0,U,36037,999,88589,.23867557E-4,.57E-6,0
YAOGAN-7,2009-069A,2026-07-17T03:31:43.612320,14.78036478,.00233912,98.0030,83.8237,304.7704,55.1305,0,U,36110,999,89405,.33466736E-4,.189E-5,0
XIWANG-1 (HOPE-1),2009-072B,2026-07-17T06:19:29.143200,13.16438783,.00075637,100.4041,151.6177,160.1186,200.0223,0,U,36122,999,79696,-.79930896E-3,-.35E-5,0
RADUGA-1M 2,2010-002A,2026-07-17T02:05:49.225920,0.98969920,.00048134,3.6970,78.4870,262.1218,154.0430,0,U,36358,999,5032,0,-.238E-5,0
COSMOS 2463,2010-017A,2026-07-17T00:20:36.305376,13.71667275,.00372154,82.9580,227.7905,49.0025,321.2860,0,U,36519,999,81202,.14322615E-4,.28E-6,0
CARTOSAT-2B,2010-035A,2026-07-17T07:37:45.729696,14.78653454,.00127523,97.9935,248.6721,93.7394,266.5275,0,U,36795,999,86430,.88071728E-4,.594E-5,0
AISSAT 1,2010-035C,2026-07-16T22:42:27.614880,14.97480202,.00077744,98.0894,98.2366,329.7653,30.3118,0,U,36797,999,86867,.14221606E-3,.1594E-4,0
TISAT 1,2010-035E,2026-07-17T06:54:01.816128,15.32780548,.00046303,98.0716,147.5354,116.0733,244.0984,0,U,36799,999,87231,.35664706E-3,.1121E-3,0
YAOGAN-10,2010-038A,2026-07-17T08:10:17.793408,14.85433636,.00016731,97.8966,221.5047,81.4845,46.9566,0,U,36834,999,86168,.91412122E-4,.734E-5,0
SHIJIAN-6 04B (SJ-6 04B),2010-051B,2026-07-17T06:06:42.359616,14.99382573,.00079394,97.8728,203.9873,205.5101,154.5730,0,U,37180,999,86018,-.6490897E-5,-.141E-5,0
FENGYUN 3B,2010-059A,2026-07-17T06:57:25.174080,14.14846498,.00231792,98.9601,244.4297,100.8677,327.6702,0,U,37214,999,81168,-.3672154E-5,-.52E-6,0
COSMO-SKYMED 4,2010-060A,2026-07-17T06:48:06.851232,14.82150873,.0001533,97.8889,21.4473,85.4417,274.6971,0,U,37216,999,84902,.58746184E-4,.415E-5,0
O/OREOS (USA 219),2010-062C,2026-07-16T22:18:25.460640,14.93855236,.00140798,71.9698,12.9594,1.7008,358.4208,0,U,37224,999,12108,.98374424E-4,.983E-5,0
ELEKTRO-L 1 (GOMS 2),2011-001A,2026-07-17T04:07:54.056352,1.00161019,.00041329,9.7523,54.1963,35.3585,143.6489,0,U,37344,999,5678,0,.21E-6,0
RESOURCESAT-2,2011-015A,2026-07-17T05:06:32.092416,14.21599839,.00116695,98.7631,265.4449,165.4715,194.6800,0,U,37387,999,79044,.36093672E-4,.35E-6,0
YOUTHSAT,2011-015B,2026-07-16T21:54:59.634144,14.25640993,.00132033,98.3703,170.6303,253.7074,160.7540,0,U,37388,999,79187,.45348446E-4,.66E-6,0
APRIZESAT 6,2011-044F,2026-07-16T18:04:06.244320,14.76958132,.00429205,98.2335,108.8536,353.2900,67.9147,0,U,37793,999,80151,.56621674E-4,.348E-5,0
JUGNU,2011-058B,2026-07-17T03:59:27.847392,14.13783712,.00186112,19.9596,126.2869,48.1963,89.0801,0,U,37839,999,76327,.35858296E-4,.335E-5,0
SRMSAT,2011-058D,2026-07-17T08:11:07.022400,14.11581363,.00117124,19.9706,236.9573,174.7321,280.3088,0,U,37841,999,76208,.33542336E-4,.327E-5,0
SUOMI NPP,2011-061A,2026-07-17T05:26:16.169856,14.19522792,.00008401,98.7955,138.8985,203.1288,156.9850,0,U,37849,999,76270,.31205967E-4,.21E-6,0
YAOGAN-12,2011-066B,2026-07-17T08:22:09.266304,15.26905915,.00109889,97.1122,235.5018,115.6016,244.6361,0,U,37875,999,81664,.77747068E-4,.1988E-4,0
BEIDOU-2 M4,2012-018B,2026-07-16T15:41:25.231200,1.86229271,.0012145,55.6306,303.0936,272.2408,87.6521,0,U,38251,999,9649,0,-.78E-6,0
ARIRANG-3 (KOMPSAT-3),2012-025B,2026-07-17T06:41:24.344736,14.62230013,.00061002,98.1186,155.2227,33.2766,326.8818,0,U,38338,999,75574,.45884245E-4,.185E-5,0
HORYU-2,2012-025D,2026-07-17T07:13:58.362816,14.91232541,.0009324,98.2212,332.4784,86.1664,274.0619,0,U,38340,999,75321,.14653283E-3,.1396E-4,0
CSSWE,2012-048D,2026-07-16T19:17:43.795968,15.46000909,.00410281,64.6638,353.0495,164.8465,195.3914,0,U,38761,999,12097,.42652741E-3,.21409E-3,0
CP5,2012-048F,2026-07-17T01:00:59.187744,15.28317601,.00738017,64.6444,53.8778,166.5224,193.7900,0,U,38763,999,12132,.24349986E-3,.7083E-4,0
METOP-B,2012-049A,2026-07-17T05:54:58.516704,14.21446743,.00011503,98.6489,249.1436,243.7587,116.3472,0,U,38771,999,71753,.38061403E-4,.4E-6,0
SJ-9A,2012-056A,2026-07-17T06:34:17.648832,14.85530872,.00261615,97.6730,169.1416,155.0811,205.1674,0,U,38860,999,70405,.59289333E-4,.462E-5,0
COSMOS 2484 (RODNIK-S 6),2013-001C,2026-07-17T06:00:54.407808,12.42940205,.00255744,82.4992,203.2014,331.0809,28.8852,0,U,39059,999,61229,-.59817179E-3,-.73E-6,0
